[{"OBJECT_NAME":"ONEWEB-0427","OBJECT_ID":"2021-132AG","EPOCH":"2026-04-08T03:59:09.934080","MEAN_MOTION":13.18688064,"ECCENTRICITY":0.0001513,"INCLINATION":87.9233,"RA_OF_ASC_NODE":349.3519,"ARG_OF_PERICENTER":80.2308,"MEAN_ANOMALY":279.8995,"EPHEMERIS_TYPE":0,"CLASSIFICATION_TYPE":"U","NORAD_CAT_ID":50499,"ELEMENT_SET_NO":999,"REV_AT_EPOCH":21238,"BSTAR":8.529e-05,"MEAN_MOTION_DOT":4.7e-07,"MEAN_MOTION_DDOT":0.0},{"OBJECT_NAME":"ONEWEB-0429","OBJECT_ID":"2021-132AH","EPOCH":"2026-04-08T03:40:11.620128","MEAN_MOTION":13.1868546,"ECCENTRICITY":0.0001872,"INCLINATION":87.9226,"RA_OF_ASC_NODE":349.3847,"ARG_OF_PERICENTER":79.5686,"MEAN_ANOMALY":280.5657,"EPHEMERIS_TYPE":0,"CLASSIFICATION_TYPE":"U","NORAD_CAT_ID":50500,"ELEMENT_SET_NO":999,"REV_AT_EPOCH":21235,"BSTAR":7.277000000000001e-05,"MEAN_MOTION_DOT":4.2e-07,"MEAN_MOTION_DDOT":0.0},{"OBJECT_NAME":"ONEWEB-0430","OBJECT_ID":"2021-132AJ","EPOCH":"2026-04-08T07:02:05.537760","MEAN_MOTION":13.18687017,"ECCENTRICITY":0.0001885,"INCLINATION":87.9226,"RA_OF_ASC_NODE":349.355,"ARG_OF_PERICENTER":73.9371,"MEAN_ANOMALY":286.1969,"EPHEMERIS_TYPE":0,"CLASSIFICATION_TYPE":"U","NORAD_CAT_ID":50501,"ELEMENT_SET_NO":999,"REV_AT_EPOCH":21241,"BSTAR":-0.00021789000000000002,"MEAN_MOTION_DOT":-7.3e-07,"MEAN_MOTION_DDOT":0.0},{"OBJECT_NAME":"ONEWEB-0432","OBJECT_ID":"2021-132AK","EPOCH":"2026-04-08T04:12:40.508640","MEAN_MOTION":13.18647504,"ECCENTRICITY":0.0001356,"INCLINATION":87.9233,"RA_OF_ASC_NODE":349.3482,"ARG_OF_PERICENTER":58.4118,"MEAN_ANOMALY":301.7146,"EPHEMERIS_TYPE":0,"CLASSIFICATION_TYPE":"U","NORAD_CAT_ID":50502,"ELEMENT_SET_NO":999,"REV_AT_EPOCH":21235,"BSTAR":0.0003344,"MEAN_MOTION_DOT":1.45e-06,"MEAN_MOTION_DDOT":0.0},{"OBJECT_NAME":"ONEWEB-0440","OBJECT_ID":"2021-132AL","EPOCH":"2026-04-08T03:52:04.263744","MEAN_MOTION":13.18685517,"ECCENTRICITY":0.0002014,"INCLINATION":87.9232,"RA_OF_ASC_NODE":349.3719,"ARG_OF_PERICENTER":89.015,"MEAN_ANOMALY":271.1213,"EPHEMERIS_TYPE":0,"CLASSIFICATION_TYPE":"U","NORAD_CAT_ID":50503,"ELEMENT_SET_NO":999,"REV_AT_EPOCH":21234,"BSTAR":0.00019137,"MEAN_MOTION_DOT":8.8e-07,"MEAN_MOTION_DDOT":0.0},{"OBJECT_NAME":"ONEWEB-0450","OBJECT_ID":"2021-132AM","EPOCH":"2026-04-08T03:42:46.042848","MEAN_MOTION":13.18685926,"ECCENTRICITY":0.0001993,"INCLINATION":87.9223,"RA_OF_ASC_NODE":349.3855,"ARG_OF_PERICENTER":77.3127,"MEAN_ANOMALY":282.8228,"EPHEMERIS_TYPE":0,"CLASSIFICATION_TYPE":"U","NORAD_CAT_ID":50504,"ELEMENT_SET_NO":999,"REV_AT_EPOCH":21237,"BSTAR":8.9484e-05,"MEAN_MOTION_DOT":4.8e-07,"MEAN_MOTION_DDOT":0.0},{"OBJECT_NAME":"ONEWEB-0410","OBJECT_ID":"2022-012A","EPOCH":"2026-04-08T04:53:54.898368","MEAN_MOTION":13.17652035,"ECCENTRICITY":6.27e-05,"INCLINATION":87.9195,"RA_OF_ASC_NODE":19.7497,"ARG_OF_PERICENTER":114.4824,"MEAN_ANOMALY":245.6373,"EPHEMERIS_TYPE":0,"CLASSIFICATION_TYPE":"U","NORAD_CAT_ID":51622,"ELEMENT_SET_NO":999,"REV_AT_EPOCH":20448,"BSTAR":0.00021221,"MEAN_MOTION_DOT":9.5e-07,"MEAN_MOTION_DDOT":0.0},{"OBJECT_NAME":"ONEWEB-0411","OBJECT_ID":"2022-012B","EPOCH":"2026-04-08T05:20:02.220288","MEAN_MOTION":13.10376732,"ECCENTRICITY":0.0002189,"INCLINATION":87.8831,"RA_OF_ASC_NODE":50.1843,"ARG_OF_PERICENTER":66.6103,"MEAN_ANOMALY":293.5254,"EPHEMERIS_TYPE":0,"CLASSIFICATION_TYPE":"U","NORAD_CAT_ID":51623,"ELEMENT_SET_NO":999,"REV_AT_EPOCH":20012,"BSTAR":0.00055188,"MEAN_MOTION_DOT":2.05e-06,"MEAN_MOTION_DDOT":0.0},{"OBJECT_NAME":"ONEWEB-0415","OBJECT_ID":"2022-012C","EPOCH":"2026-04-08T03:25:16.653504","MEAN_MOTION":13.10374284,"ECCENTRICITY":0.0001929,"INCLINATION":87.8831,"RA_OF_ASC_NODE":50.2025,"ARG_OF_PERICENTER":71.9615,"MEAN_ANOMALY":288.1722,"EPHEMERIS_TYPE":0,"CLASSIFICATION_TYPE":"U","NORAD_CAT_ID":51624,"ELEMENT_SET_NO":999,"REV_AT_EPOCH":20011,"BSTAR":6.0871e-05,"MEAN_MOTION_DOT":3.4e-07,"MEAN_MOTION_DDOT":0.0},{"OBJECT_NAME":"ONEWEB-0416","OBJECT_ID":"2022-012D","EPOCH":"2026-04-08T03:42:02.621664","MEAN_MOTION":13.10375644,"ECCENTRICITY":0.0001744,"INCLINATION":87.8826,"RA_OF_ASC_NODE":50.2202,"ARG_OF_PERICENTER":65.6977,"MEAN_ANOMALY":294.4333,"EPHEMERIS_TYPE":0,"CLASSIFICATION_TYPE":"U","NORAD_CAT_ID":51625,"ELEMENT_SET_NO":999,"REV_AT_EPOCH":20015,"BSTAR":0.0013628000000000002,"MEAN_MOTION_DOT":4.88e-06,"MEAN_MOTION_DDOT":0.0},{"OBJECT_NAME":"ONEWEB-0422","OBJECT_ID":"2022-012E","EPOCH":"2026-04-08T05:08:31.792704","MEAN_MOTION":13.17647747,"ECCENTRICITY":0.0002446,"INCLINATION":87.9192,"RA_OF_ASC_NODE":19.7505,"ARG_OF_PERICENTER":84.6194,"MEAN_ANOMALY":275.5217,"EPHEMERIS_TYPE":0,"CLASSIFICATION_TYPE":"U","NORAD_CAT_ID":51626,"ELEMENT_SET_NO":999,"REV_AT_EPOCH":20459,"BSTAR":0.00025485000000000004,"MEAN_MOTION_DOT":1.12e-06,"MEAN_MOTION_DDOT":0.0},{"OBJECT_NAME":"ONEWEB-0423","OBJECT_ID":"2022-012F","EPOCH":"2026-04-08T04:58:48.324864","MEAN_MOTION":13.17650977,"ECCENTRICITY":0.000186,"INCLINATION":87.9188,"RA_OF_ASC_NODE":19.7606,"ARG_OF_PERICENTER":81.8434,"MEAN_ANOMALY":278.2908,"EPHEMERIS_TYPE":0,"CLASSIFICATION_TYPE":"U","NORAD_CAT_ID":51627,"ELEMENT_SET_NO":999,"REV_AT_EPOCH":20448,"BSTAR":0.00021652,"MEAN_MOTION_DOT":9.7e-07,"MEAN_MOTION_DDOT":0.0},{"OBJECT_NAME":"ONEWEB-0425","OBJECT_ID":"2022-012G","EPOCH":"2026-04-07T22:26:30.931872","MEAN_MOTION":13.10373015,"ECCENTRICITY":0.0001596,"INCLINATION":87.8832,"RA_OF_ASC_NODE":50.2438,"ARG_OF_PERICENTER":86.9013,"MEAN_ANOMALY":273.2297,"EPHEMERIS_TYPE":0,"CLASSIFICATION_TYPE":"U","NORAD_CAT_ID":51628,"ELEMENT_SET_NO":999,"REV_AT_EPOCH":20012,"BSTAR":0.0018149000000000002,"MEAN_MOTION_DOT":6.46e-06,"MEAN_MOTION_DDOT":0.0},{"OBJECT_NAME":"ONEWEB-0428","OBJECT_ID":"2022-012H","EPOCH":"2026-04-08T05:17:38.178528","MEAN_MOTION":13.10376761,"ECCENTRICITY":0.0001925,"INCLINATION":87.8825,"RA_OF_ASC_NODE":50.1976,"ARG_OF_PERICENTER":81.1071,"MEAN_ANOMALY":279.0275,"EPHEMERIS_TYPE":0,"CLASSIFICATION_TYPE":"U","NORAD_CAT_ID":51629,"ELEMENT_SET_NO":999,"REV_AT_EPOCH":20012,"BSTAR":0.00024733,"MEAN_MOTION_DOT":9.9e-07,"MEAN_MOTION_DDOT":0.0},{"OBJECT_NAME":"ONEWEB-0431","OBJECT_ID":"2022-012J","EPOCH":"2026-04-08T06:24:21.918240","MEAN_MOTION":13.10370434,"ECCENTRICITY":0.000234,"INCLINATION":87.8833,"RA_OF_ASC_NODE":50.1767,"ARG_OF_PERICENTER":68.5648,"MEAN_ANOMALY":291.5729,"EPHEMERIS_TYPE":0,"CLASSIFICATION_TYPE":"U","NORAD_CAT_ID":51630,"ELEMENT_SET_NO":999,"REV_AT_EPOCH":20018,"BSTAR":-0.0011967,"MEAN_MOTION_DOT":-4.05e-06,"MEAN_MOTION_DDOT":0.0},{"OBJECT_NAME":"ONEWEB-0434","OBJECT_ID":"2022-012K","EPOCH":"2026-04-08T02:11:23.861760","MEAN_MOTION":13.10372655,"ECCENTRICITY":0.00014,"INCLINATION":87.8824,"RA_OF_ASC_NODE":50.2376,"ARG_OF_PERICENTER":96.6449,"MEAN_ANOMALY":263.4838,"EPHEMERIS_TYPE":0,"CLASSIFICATION_TYPE":"U","NORAD_CAT_ID":51631,"ELEMENT_SET_NO":999,"REV_AT_EPOCH":20014,"BSTAR":0.0016538,"MEAN_MOTION_DOT":5.9e-06,"MEAN_MOTION_DDOT":0.0}]