ONEWEB-0427             
1 50499U 21132AG  26098.16608720  .00000047  00000+0  85290-4 0  9999
2 50499  87.9233 349.3519 0001513  80.2308 279.8995 13.18688064212386
ONEWEB-0429             
1 50500U 21132AH  26098.15291227  .00000042  00000+0  72770-4 0  9995
2 50500  87.9226 349.3847 0001872  79.5686 280.5657 13.18685460212351
ONEWEB-0430             
1 50501U 21132AJ  26098.29311965 -.00000073  00000+0 -21789-3 0  9992
2 50501  87.9226 349.3550 0001885  73.9371 286.1969 13.18687017212411
ONEWEB-0432             
1 50502U 21132AK  26098.17546885  .00000145  00000+0  33440-3 0  9996
2 50502  87.9233 349.3482 0001356  58.4118 301.7146 13.18647504212355
ONEWEB-0440             
1 50503U 21132AL  26098.16116046  .00000088  00000+0  19137-3 0  9991
2 50503  87.9232 349.3719 0002014  89.0150 271.1213 13.18685517212346
ONEWEB-0450             
1 50504U 21132AM  26098.15469957  .00000048  00000+0  89484-4 0  9992
2 50504  87.9223 349.3855 0001993  77.3127 282.8228 13.18685926212379
ONEWEB-0410             
1 51622U 22012A   26098.20410762  .00000095  00000+0  21221-3 0  9994
2 51622  87.9195  19.7497 0000627 114.4824 245.6373 13.17652035204484
ONEWEB-0411             
1 51623U 22012B   26098.22224792  .00000205  00000+0  55188-3 0  9995
2 51623  87.8831  50.1843 0002189  66.6103 293.5254 13.10376732200125
ONEWEB-0415             
1 51624U 22012C   26098.14255386  .00000034  00000+0  60871-4 0  9996
2 51624  87.8831  50.2025 0001929  71.9615 288.1722 13.10374284200116
ONEWEB-0416             
1 51625U 22012D   26098.15419701  .00000488  00000+0  13628-2 0  9990
2 51625  87.8826  50.2202 0001744  65.6977 294.4333 13.10375644200157
ONEWEB-0422             
1 51626U 22012E   26098.21425686  .00000112  00000+0  25485-3 0  9996
2 51626  87.9192  19.7505 0002446  84.6194 275.5217 13.17647747204599
ONEWEB-0423             
1 51627U 22012F   26098.20750376  .00000097  00000+0  21652-3 0  9997
2 51627  87.9188  19.7606 0001860  81.8434 278.2908 13.17650977204486
ONEWEB-0425             
1 51628U 22012G   26097.93508023  .00000646  00000+0  18149-2 0  9993
2 51628  87.8832  50.2438 0001596  86.9013 273.2297 13.10373015200121
ONEWEB-0428             
1 51629U 22012H   26098.22058077  .00000099  00000+0  24733-3 0  9995
2 51629  87.8825  50.1976 0001925  81.1071 279.0275 13.10376761200128
ONEWEB-0431             
1 51630U 22012J   26098.26692035 -.00000405  00000+0 -11967-2 0  9996
2 51630  87.8833  50.1767 0002340  68.5648 291.5729 13.10370434200188
ONEWEB-0434             
1 51631U 22012K   26098.09124840  .00000590  00000+0  16538-2 0  9994
2 51631  87.8824  50.2376 0001400  96.6449 263.4838 13.10372655200145
